ONEWEB-0360             
1 49286U 21090H   23217.13320169  .00000157  00000+0  35481-3 0  9997
2 49286  87.9240 122.9234 0002142  78.8884 281.2490 13.20774214 92925
ONEWEB-0361             
1 49287U 21090J   23217.79605785  .00000220  00000+0  51031-3 0  9990
2 49287  87.9239 122.7881 0001939  70.3410 289.7932 13.20768783 93003
ONEWEB-0362             
1 49288U 21090K   23217.75387440  .00000015  00000+0  53433-5 0  9994
2 49288  87.9292 153.2056 0001816  81.1784 278.9554 13.19726948 89712
ONEWEB-0363             
1 49289U 21090L   23218.11592414  .00000035  00000+0  54605-4 0  9998
2 49289  87.9237 122.7227 0002038  65.1760 294.9585 13.20770118 93050
ONEWEB-0364             
1 49290U 21090M   23218.15381711  .00000139  00000+0  31113-3 0  9993
2 49290  87.9248 122.7228 0001740  78.0878 282.0451 13.20772289 94183
ONEWEB-0365             
1 49291U 21090N   23217.38319440 -.00000067  00000+0 -20087-3 0  9998
2 49291  87.9288 153.2657 0002115  84.8275 275.3099 13.19723272 89640
ONEWEB-0366             
1 49292U 21090P   23218.04497489 -.00000033  00000+0 -12403-3 0  9999
2 49292  87.9056 137.9475 0001793  76.6504 283.4825 13.14505016 91421
ONEWEB-0367             
1 49293U 21090Q   23218.18958111  .00000083  00000+0  17273-3 0  9992
2 49293  87.9235 122.7034 0001658  77.6598 282.4720 13.20773099 93057
ONEWEB-0368             
1 49294U 21090R   23217.25314862  .00000134  00000+0  29751-3 0  9990
2 49294  87.9246 122.9019 0001236  52.8955 307.2291 13.20770435 94083
ONEWEB-0369             
1 49295U 21090S   23217.75808309 -.00000073  00000+0 -21589-3 0  9995
2 49295  87.9286 153.1874 0001887  77.5687 282.5657 13.19724467 89684
ONEWEB-0370             
1 49296U 21090T   23218.12223305  .00000032  00000+0  47733-4 0  9998
2 49296  87.9238 122.7200 0001980  78.5947 281.5408 13.20769750 93089
ONEWEB-0371             
1 49297U 21090U   23217.38741817  .00000075  00000+0  15613-3 0  9997
2 49297  87.9289 153.2495 0001994  82.2508 277.8852 13.19724536 89673
ONEWEB-0372             
1 49298U 21090V   23218.18748657  .00000176  00000+0  40018-3 0  9995
2 49298  87.9234 122.7035 0001840  90.4755 269.6590 13.20771217 93066
ONEWEB-0373             
1 49299U 21090W   23217.30575500  .00000085  00000+0  17789-3 0  9992
2 49299  87.9183 122.8146 0001767  65.0630 295.0687 13.20771468 94139
ONEWEB-0374             
1 49300U 21090X   23217.34721163 -.00000580  00000+0 -16001-2 0  9994
2 49300  87.9052 138.0783 0001957  75.9732 284.1615 13.14501870 91326
ONEWEB-0375             
1 49301U 21090Y   23217.29312680  .00000130  00000+0  28774-3 0  9999
2 49301  87.9235 122.8879 0002313  60.7681 299.3684 13.20770527 93622
ONEWEB-0376             
1 49302U 21090Z   23217.38532340  .00000046  00000+0  81374-4 0  9999
2 49302  87.9289 153.2663 0001871  87.8857 272.2490 13.19726314 89661
ONEWEB-0377             
1 49303U 21090AA  23217.74557242  .00000070  00000+0  14068-3 0  9990
2 49303  87.9236 122.7941 0002144  81.9780 278.1597 13.20770239 93663
ONEWEB-0378             
1 49304U 21090AB  23217.25417107  .00000047  00000+0  84494-4 0  9997
2 49304  87.9235 122.8859 0001811  66.4095 293.7228 13.20774538 92905
ONEWEB-0379             
1 49305U 21090AC  23218.17817646 -.00000018  00000+0 -83162-4 0  9993
2 49305  87.9054 137.9137 0001856  77.5215 282.6122 13.14505300 91447
ONEWEB-0380             
1 49306U 21090AD  23217.38110623  .00000003  00000+0 -24568-4 0  9995
2 49306  87.9288 153.2632 0002291  81.2448 278.8944 13.19727346 89630
ONEWEB-0381             
1 49307U 21090AE  23218.18538144  .00000062  00000+0  11947-3 0  9997
2 49307  87.9187 122.6312 0002127  76.7769 283.3602 13.20768299 93054
ONEWEB-0382             
1 49308U 21090AF  23217.79395019  .00000002  00000+0 -27882-4 0  9997
2 49308  87.9236 122.7822 0002053  68.3106 291.8246 13.20769762 93006
ONEWEB-0383             
1 49309U 21090AG  23218.17183315  .00000086  00000+0  19873-3 0  9996
2 49309  87.9053 137.8970 0001774  73.3249 286.8075 13.14504946 91464
ONEWEB-0384             
1 49310U 21090AH  23218.16854416  .00000108  00000+0  23318-3 0  9998
2 49310  87.9236 122.7037 0001989  57.0327 303.0997 13.20772697 93060
ONEWEB-0385             
1 49311U 21090AJ  23218.16431775  .00000104  00000+0  22500-3 0  9996
2 49311  87.9235 122.7069 0002053  64.3477 295.7868 13.20773882 93044
ONEWEB-0386             
1 49312U 21090AK  23218.18116781  .00000049  00000+0  87424-4 0  9991
2 49312  87.9240 122.7155 0001901  67.5961 292.5374 13.20773446 93055
ONEWEB-0387             
1 49313U 21090AL  23217.25734751  .00000091  00000+0  19157-3 0  9996
2 49313  87.9261 122.9363 0002446  71.2689 288.8710 13.20774322 92938
ONEWEB-0388             
1 49314U 21090AM  23217.75598479  .00000014  00000+0  24233-5 0  9995
2 49314  87.9288 153.1911 0001882  75.1799 284.9543 13.19727071 89687
SHIJIAN-21 (SJ-21)      
1 49330U 21094A   23217.67852635  .00000128  00000+0  00000+0 0  9991
2 49330   9.2158  47.4416 0080887  26.3582 153.2974  1.00355909  6750
SES-17                  
1 49332U 21095A   23217.51596514 -.00000283  00000+0  00000+0 0  9991
2 49332   0.0163  75.6500 0001113  61.2357 295.5553  1.00269446  7346
SYRACUSE 4A             
1 49333U 21095B   23216.67842955  .00000124  00000+0  00000+0 0  9994
2 49333   0.0187  89.6746 0001824  58.6538  94.3625  1.00268048  7487
QZS-1R                  
1 49336U 21096A   23217.56182338 -.00000306  00000+0  00000+0 0  9992
2 49336  35.2903  95.3733 0759585 272.2550 279.0764  1.00239338  6517
JILIN-01 GAOFEN 2F      
1 49338U 21097A   23218.18579884  .00008828  00000+0  47522-3 0  9990
2 49338  97.5711 325.9196 0010662 183.7014 176.4140 15.15026657 97864
YAOGAN-32 2A            
1 49383U 21099A   23218.18878339  .00001197  00000+0  25696-3 0  9999
2 49383  98.1660 340.7362 0000888  98.3111 261.8190 14.60369036 93480
YAOGAN-32 2B            
1 49384U 21099B   23218.18867493  .00001185  00000+0  25446-3 0  9999
2 49384  98.1672 340.8327 0001137  95.6584 264.4746 14.60369931 93488
SDGSAT 1                
1 49387U 21100A   23218.13897283  .00005654  00000+0  26545-3 0  9996
2 49387  97.4123 278.2831 0001498  77.4617 282.6785 15.20025217 97069
YAOGAN-35 A             
1 49390U 21101A   23217.86294421  .00015801  00000+0  65663-3 0  9994
2 49390  34.9953  13.2962 0007634 313.3458  46.6620 15.22944530 97296
YAOGAN-35 B             
1 49391U 21101B   23217.85909865  .00022914  00000+0  94759-3 0  9990
2 49391  34.9957  13.3020 0006700 314.9948  45.0224 15.23058487 97281
YAOGAN-35 C             
1 49393U 21101D   23217.86329730  .00001526  00000+0  64832-4 0  9996
2 49393  34.9995  12.4163 0013728 242.9952 116.9361 15.22929152 97315
ASTERISC                
1 49395U 21102A   23218.14763613  .00013242  00000+0  82371-3 0  9998
2 49395  97.4848 270.0313 0013088 236.5713 123.4266 15.09674484 95405
TEIKYOSAT-4 (OORURI)    
1 49396U 21102B   23217.75191222  .00002892  00000+0  22213-3 0  9994
2 49396  97.5106 268.2016 0013264 269.8451  90.1255 15.02454759 95218
RAISE 2                 
1 49397U 21102C   23217.19937791  .00005044  00000+0  36933-3 0  9998
2 49397  97.4695 266.6891 0010801 311.0686  48.9607 15.03953522 95178
Z-SAT                   
1 49399U 21102E   23218.14941679  .00003673  00000+0  26069-3 0  9991
2 49399  97.4812 269.7141 0020205 257.8960 102.0003 15.05185855 95400
HIBARI                  
1 49400U 21102F   23217.70094534  .00007201  00000+0  48353-3 0  9995
2 49400  97.4783 269.8138 0018360 250.7490 109.1752 15.06961572 95381
DRUMS                   
1 49401U 21102G   23217.46073400  .00003655  00000+0  25713-3 0  9992
2 49401  97.4798 269.3414 0018371 251.2591 108.6643 15.05544215 95327
KOSEN-1                 
1 49402U 21102H   23218.09712105  .00007025  00000+0  47048-3 0  9995
2 49402  97.4732 270.2632 0019431 245.2735 114.6470 15.07053473 95474
STARLINK-3151           
1 49408U 21104A   23218.07505473  .00002707  00000+0  18805-3 0  9990
2 49408  53.2162 158.6471 0001106  99.3783 260.7334 15.08848112 96823
STARLINK-3075           
1 49409U 21104B   23218.15601294  .00003785  00000+0  25569-3 0  9990
2 49409  53.2170 158.2758 0001279  84.0945 276.0193 15.08852121 96827
STARLINK-3147           
1 49410U 21104C   23218.14961866  .00000970  00000+0  79004-4 0  9992
2 49410  53.2165 158.3126 0001134 104.7828 255.3290 15.08843736 96823
STARLINK-3162           
1 49411U 21104D   23218.07597736  .00002888  00000+0  19941-3 0  9999
2 49411  53.2155 148.6341 0001166 106.2241 253.8880 15.08851688 96941
STARLINK-3144           
1 49412U 21104E   23217.29121716  .00001796  00000+0  13086-3 0  9995
2 49412  53.2160 162.1564 0001140  96.2261 263.8861 15.08849194 96701
STARLINK-3157           
1 49413U 21104F   23218.07325244  .00002096  00000+0  14971-3 0  9993
2 49413  53.2166 148.6551 0001168 102.3911 257.7211 15.08846440 96953
STARLINK-3146           
1 49414U 21104G   23218.14497470  .00002321  00000+0  16380-3 0  9990
2 49414  53.2168 158.3275 0001218  91.5710 268.5422 15.08849387 96822
STARLINK-3159           
1 49415U 21104H   23217.20749788  .00001224  00000+0  94947-4 0  9996
2 49415  53.2175 152.5346 0001142  98.8911 261.2210 15.08851187 96810
STARLINK-3133           
1 49416U 21104J   23217.21025853  .00000716  00000+0  63070-4 0  9996
2 49416  53.2179 162.5178 0001415  99.9214 260.1937 15.08846708 96682
STARLINK-3154           
1 49417U 21104K   23218.20205156  .00003024  00000+0  20791-3 0  9990
2 49417  53.2159 148.1149 0001169  93.3908 266.7218 15.08851053 96989
STARLINK-3111           
1 49418U 21104L   23218.06770206  .00000323  00000+0  38355-4 0  9993
2 49418  53.2169 158.6717 0001270  99.4545 260.6591 15.08838340 96818
STARLINK-3120           
1 49419U 21104M   23217.12929774  .00000538  00000+0  51890-4 0  9993
2 49419  53.2165 162.8835 0001181  97.1236 262.9891 15.08849024 96657
